OBJECT_NAME,OBJECT_ID,EPOCH,MEAN_MOTION,ECCENTRICITY,INCLINATION,RA_OF_ASC_NODE,ARG_OF_PERICENTER,MEAN_ANOMALY,EPHEMERIS_TYPE,CLASSIFICATION_TYPE,NORAD_CAT_ID,ELEMENT_SET_NO,REV_AT_EPOCH,BSTAR,MEAN_MOTION_DOT,MEAN_MOTION_DDOT
ONEWEB-0231,2021-045R,2026-06-13T14:59:52.030464,13.15547267,.00017716,87.9004,259.9064,106.0599,254.0726,0,U,48782,999,24387,-.32526632E-3,-.11E-5,0
ONEWEB-0234,2021-045S,2026-06-13T12:15:23.231520,13.15549266,.00026756,87.9009,259.9105,112.6234,247.5179,0,U,48783,999,24399,-.10147642E-3,-.25E-6,0
ONEWEB-0238,2021-045T,2026-06-13T12:15:45.970272,13.15547398,.00023047,87.9015,259.9046,108.1714,251.9667,0,U,48784,999,24389,-.65627181E-4,-.12E-6,0
ONEWEB-0240,2021-045U,2026-06-13T12:46:22.662336,13.15548644,.00018466,87.9011,259.9109,110.3107,249.8222,0,U,48785,999,24392,-.95683623E-4,-.23E-6,0
ONEWEB-0246,2021-045V,2026-06-13T07:09:50.357664,13.15549015,.00018878,87.9010,259.9618,98.3703,261.7642,0,U,48786,999,24376,-.23168475E-3,-.74E-6,0
ONEWEB-0210,2021-045W,2026-06-13T06:33:18.514944,13.15550856,.0001186,87.9012,259.9638,84.3536,275.7729,0,U,48787,999,24380,.12246E-3,.59E-6,0
ONEWEB-0214,2021-045X,2026-06-13T12:14:26.425248,13.15549278,.00018675,87.9011,259.9132,89.8191,270.3154,0,U,48788,999,24380,.63969632E-4,.37E-6,0
ONEWEB-0221,2021-045Y,2026-06-13T06:56:08.712672,13.15548539,.00017919,87.9011,259.9662,103.5384,256.5946,0,U,48789,999,24386,-.19875742E-3,-.62E-6,0
ONEWEB-0213,2021-045Z,2026-06-13T12:08:43.308384,13.15547379,.00016736,87.9011,259.9262,101.5421,258.5897,0,U,48790,999,24395,.13093678E-3,.62E-6,0
ONEWEB-0212,2021-045AA,2026-06-13T13:25:10.633440,13.15550341,.00020255,87.9009,259.9102,101.6538,258.4820,0,U,48791,999,24395,.5134152E-3,.206E-5,0
ONEWEB-0227,2021-045AB,2026-06-13T15:13:34.002048,13.15548953,.00018953,87.9008,259.8960,102.9759,257.1583,0,U,48792,999,24391,.30589318E-3,.128E-5,0
ONEWEB-0226,2021-045AC,2026-06-13T13:14:53.907648,13.15550481,.00017068,87.9005,259.9171,98.6220,261.5104,0,U,48793,999,24387,.36835791E-3,.151E-5,0
ONEWEB-0224,2021-045AD,2026-06-13T06:53:50.543520,13.15547257,.00022583,87.9002,260.0038,123.9263,236.2082,0,U,48794,999,24376,-.13568523E-3,-.38E-6,0
ONEWEB-0233,2021-045AE,2026-06-13T07:00:30.498624,13.15548364,.00017473,87.9000,260.0106,107.3895,252.7426,0,U,48795,999,24378,-.28735459E-3,-.95E-6,0
ONEWEB-0190,2021-045AF,2026-06-13T12:11:00.075264,13.15547083,.00013139,87.9004,259.9293,107.7321,252.3953,0,U,48796,999,24388,-.69826828E-4,-.13E-6,0
ONEWEB-0236,2021-045AG,2026-06-13T07:07:33.429216,13.15548409,.00021165,87.9000,259.9815,102.4923,257.6444,0,U,48797,999,24374,-.20741239E-3,-.65E-6,0
ONEWEB-0248,2021-045AH,2026-06-13T12:54:21.852288,13.15547514,.00017066,87.9009,259.9167,114.0016,246.1294,0,U,48798,999,24393,.73200284E-4,.4E-6,0
ONEWEB-0225,2021-045AJ,2026-06-13T15:15:51.072192,13.15548911,.00013932,87.9005,259.9053,107.2888,252.8395,0,U,48799,999,24395,.39957186E-3,.163E-5,0
ONEWEB-0215,2021-045AK,2026-06-13T07:14:22.394976,13.15547069,.00013995,87.9011,259.9542,114.4600,245.6677,0,U,48800,999,24378,-.14362204E-3,-.41E-6,0
ONEWEB-0216,2021-045AL,2026-06-13T12:56:39.934176,13.15548925,.00019799,87.9008,259.9219,98.4728,261.6627,0,U,48801,999,24382,.35642939E-4,.26E-6,0
ONEWEB-0239,2021-045AM,2026-06-13T14:53:01.671072,13.15547896,.00015524,87.8997,259.9125,124.8273,235.3004,0,U,48802,999,24387,-.15073065E-3,-.44E-6,0
ONEWEB-0249,2021-060A,2026-06-13T15:11:33.938016,13.16595147,.00020442,87.9099,229.4838,101.3623,258.7738,0,U,48967,999,23914,.18650093E-3,.84E-6,0
ONEWEB-0250,2021-060B,2026-06-13T14:37:50.828448,13.25833162,.00027364,87.9099,227.2566,116.9213,243.2203,0,U,48968,999,23974,.15053364E-3,.79E-6,0
ONEWEB-0252,2021-060D,2026-06-13T14:06:35.254656,13.16593578,.00019511,87.9100,229.4852,92.6769,267.4585,0,U,48970,999,23918,-.391926E-4,-.2E-7,0
ONEWEB-0253,2021-060E,2026-06-13T13:50:37.765536,13.16593080,.00020645,87.9101,229.4926,101.9521,258.1841,0,U,48971,999,23911,-.18751951E-3,-.59E-6,0
ONEWEB-0254,2021-060F,2026-06-13T14:04:18.699456,13.16594363,.00018871,87.9102,229.4881,106.0553,254.0786,0,U,48972,999,23911,-.10297723E-3,-.27E-6,0
ONEWEB-0255,2021-060G,2026-06-13T14:59:01.844160,13.16594520,.0001867,87.9098,229.4874,100.8540,259.2801,0,U,48973,999,23919,.18351111E-3,.83E-6,0
ONEWEB-0256,2021-060H,2026-06-13T13:47:11.950368,13.16593233,.00021014,87.9096,229.5015,95.2280,264.9091,0,U,48974,999,23915,-.22009494E-4,.4E-7,0
ONEWEB-0257,2021-060J,2026-06-13T14:33:56.619648,13.16594000,.00019101,87.9097,229.4821,97.2072,262.9276,0,U,48975,999,23911,-.314911E-6,.13E-6,0
ONEWEB-0258,2021-060K,2026-06-13T14:36:13.628448,13.16593903,.00020471,87.9098,229.4937,99.5495,260.5868,0,U,48976,999,23912,.60055424E-4,.36E-6,0
ONEWEB-0259,2021-060L,2026-06-13T14:27:06.686208,13.16594367,.00020408,87.9097,229.4944,103.6475,256.4884,0,U,48977,999,23915,-.11394362E-3,-.31E-6,0
ONEWEB-0260,2021-060M,2026-06-13T14:14:33.734400,13.16593047,.0002045,87.9094,229.4980,87.2804,272.8561,0,U,48978,999,23913,-.41148116E-3,-.144E-5,0
ONEWEB-0261,2021-060N,2026-06-13T15:20:39.625728,13.16595678,.00017115,87.9098,229.4885,98.7679,261.3646,0,U,48979,999,23919,.22116161E-3,.97E-6,0
ONEWEB-0262,2021-060P,2026-06-13T14:52:11.283456,13.16594310,.00020399,87.9097,229.4785,106.3401,253.7954,0,U,48980,999,23915,.16625606E-3,.76E-6,0
ONEWEB-0263,2021-060Q,2026-06-13T13:48:20.860416,13.16595124,.00017387,87.9100,229.4987,102.2302,257.9024,0,U,48981,999,23911,.18790118E-3,.85E-6,0
ONEWEB-0264,2021-060R,2026-06-13T14:41:55.986720,13.16594748,.00018827,87.9097,229.4946,94.4762,265.6584,0,U,48982,999,23912,.33916559E-4,.26E-6,0
ONEWEB-0266,2021-060T,2026-06-13T15:12:42.428160,13.16594154,.00021161,87.9101,229.4807,99.0152,261.1218,0,U,48984,999,23911,.25974845E-3,.112E-5,0
ONEWEB-0267,2021-060U,2026-06-13T13:39:13.972608,13.16594267,.00018349,87.9102,229.4901,97.7489,262.3850,0,U,48985,999,23911,.76763775E-4,.42E-6,0
ONEWEB-0268,2021-060V,2026-06-13T14:43:03.069408,13.16595423,.00020656,87.9099,229.4911,94.7236,265.4131,0,U,48986,999,23938,.12424918E-3,.6E-6,0
ONEWEB-0269,2021-060W,2026-06-13T14:15:42.536448,13.16594040,.00022023,87.9089,229.4976,94.3273,265.8109,0,U,48987,999,23915,-.25159136E-3,-.83E-6,0
ONEWEB-0270,2021-060X,2026-06-13T14:40:47.432640,13.16594064,.00017984,87.9098,229.4931,106.5945,253.5384,0,U,48988,999,23919,.27871394E-4,.24E-6,0
ONEWEB-0271,2021-060Y,2026-06-13T14:22:33.028896,13.16593827,.0001829,87.9100,229.4858,100.4371,259.6966,0,U,48989,999,23919,.10244226E-4,.17E-6,0
ONEWEB-0272,2021-060Z,2026-06-13T14:54:26.962560,13.16592951,.00018687,87.9098,229.4932,90.3096,269.8249,0,U,48990,999,23914,.21247107E-3,.94E-6,0
ONEWEB-0273,2021-060AA,2026-06-13T13:36:57.108960,13.16594636,.00019271,87.9103,229.5027,100.8112,259.3236,0,U,48991,999,23911,.58044924E-4,.35E-6,0
ONEWEB-0274,2021-060AB,2026-06-13T14:13:25.176864,13.16593303,.00019959,87.9090,229.5008,89.1717,270.9642,0,U,48992,999,23915,-.27966305E-3,-.94E-6,0
ONEWEB-0275,2021-060AC,2026-06-13T13:57:28.587168,13.16593375,.00019703,87.9101,229.4913,96.1677,263.9678,0,U,48993,999,23908,-.29625211E-3,-.1E-5,0
ONEWEB-0276,2021-060AD,2026-06-13T14:45:20.695968,13.16594135,.00019963,87.9097,229.4846,93.7281,266.4079,0,U,48994,999,23910,.25615529E-3,.111E-5,0
ONEWEB-0277,2021-060AE,2026-06-13T15:03:35.772768,13.16593490,.00018837,87.9092,229.4909,100.6155,259.5188,0,U,48995,999,23909,.23462378E-3,.103E-5,0
ONEWEB-0278,2021-060AF,2026-06-13T14:49:52.709088,13.16593636,.00022577,87.9100,229.4829,100.7587,259.3798,0,U,48996,999,23922,-.82598506E-3,-.303E-5,0
ONEWEB-0279,2021-060AG,2026-06-13T15:01:18.537600,13.16594610,.00017667,87.9100,229.4795,96.4190,263.7142,0,U,48997,999,23915,.24537471E-3,.107E-5,0
ONEWEB-0280,2021-060AH,2026-06-13T15:22:57.407808,13.16593173,.00020589,87.9098,229.4806,107.7624,252.3732,0,U,48998,999,23909,.53897883E-4,.33E-6,0
ONEWEB-0281,2021-060AJ,2026-06-13T13:41:30.784416,13.16594880,.00020982,87.9102,229.4898,98.4376,261.6993,0,U,48999,999,23915,.42971818E-4,.29E-6,0
ONEWEB-0282,2021-060AK,2026-06-13T14:24:47.982240,13.16593769,.00019711,87.9097,229.4925,101.4755,258.6597,0,U,49000,999,23913,-.73919272E-3,-.27E-5,0
ONEWEB-0283,2021-060AL,2026-06-13T14:08:51.869472,13.16593945,.00019036,87.9098,229.4939,97.3918,262.7430,0,U,49001,999,23914,-.8958932E-4,-.21E-6,0
ONEWEB-0284,2021-060AM,2026-06-13T13:59:45.242592,13.16593850,.00022345,87.9101,229.4884,106.0901,254.0476,0,U,49002,999,23912,-.2034477E-3,-.65E-6,0
ONEWEB-0285,2021-075A,2026-06-13T13:16:49.614528,13.12444166,.0001763,87.8946,351.3845,92.1769,267.9562,0,U,49075,999,23473,-.8977291E-3,-.31E-5,0
ONEWEB-0286,2021-075B,2026-06-13T12:51:00.862560,13.12442371,.00019997,87.8937,351.4053,86.9266,273.2091,0,U,49076,999,23408,-.61892337E-3,-.21E-5,0
ONEWEB-0287,2021-075C,2026-06-13T14:20:37.128480,13.17649226,.00022835,87.9134,6.5802,86.5303,273.6089,0,U,49077,999,23315,.44019699E-4,.3E-6,0
ONEWEB-0288,2021-075D,2026-06-13T12:17:04.213248,13.12443128,.00020332,87.8946,351.3863,92.6361,267.5000,0,U,49078,999,23470,.1232394E-2,.456E-5,0
ONEWEB-0289,2021-075E,2026-06-13T15:16:18.615648,13.17650158,.0001798,87.9141,6.5889,100.3228,259.8107,0,U,49079,999,23373,.12596192E-3,.62E-6,0
ONEWEB-0290,2021-075F,2026-06-13T14:37:38.266752,13.17648408,.00017293,87.9143,6.5662,104.1737,255.9586,0,U,49080,999,23314,.52619734E-4,.33E-6,0
ONEWEB-0291,2021-075G,2026-06-13T14:15:45.982944,13.17649278,.00021711,87.9138,6.5773,93.9997,266.1383,0,U,49081,999,23313,-.6595547E-5,.1E-6,0
ONEWEB-0293,2021-075H,2026-06-13T14:52:12.137952,13.17648333,.00018535,87.9135,6.5754,92.5661,267.5683,0,U,49082,999,23316,.22943134E-4,.22E-6,0
ONEWEB-0294,2021-075J,2026-06-13T12:26:49.630272,13.12443286,.00017625,87.8948,351.3886,101.0380,259.0947,0,U,49083,999,23409,.84682434E-3,.317E-5,0
ONEWEB-0295,2021-075K,2026-06-13T14:50:59.546400,13.17648447,.00021556,87.9135,6.5796,90.4704,269.6674,0,U,49084,999,23312,.12356985E-3,.61E-6,0
